{
  "type": "FeatureCollection",
  "features": [
    {
      "type": "Feature",
      "properties": {
        "norad_id": 64751,
        "name": "PROGRESS-MS 31",
        "group": "stations",
        "lat": -1.2720597790868102,
        "lon": 140.85820839010805,
        "alt_km": 419.9946437716835,
        "timestamp": "2025-12-12T20:43:05.813691+00:00",
        "meta_object_name": "PROGRESS-MS 31",
        "meta_object_id": "2025-146A",
        "meta_epoch": "2025-12-12T03:41:57.165504",
        "meta_mean_motion": 15.49529746,
        "meta_eccentricity": 0.00032837,
        "meta_inclination": 51.6307,
        "meta_ra_of_asc_node": 145.3792,
        "meta_arg_of_pericenter": 237.6977,
        "meta_mean_anomaly": 122.3694,
        "meta_ephemeris_type": 0,
        "meta_classification_type": "U",
        "meta_norad_cat_id": 64751,
        "meta_element_set_no": 999,
        "meta_rev_at_epoch": 675,
        "meta_bstar": 0.00026408062,
        "meta_mean_motion_dot": 0.00014398,
        "meta_mean_motion_ddot": 0,
        "tle_line1": "1 64751U 25146A   25346.15413386  .00014398  00000+0  26408-3 0  9999",
        "tle_line2": "2 64751  51.6307 145.3792 0003283 237.6977 122.3694 15.49529746  6752"
      },
      "geometry": {
        "type": "Point",
        "coordinates": [
          140.85820839010805,
          -1.2720597790868102
        ]
      }
    },
    {
      "type": "Feature",
      "properties": {
        "norad_id": 64786,
        "name": "TIANZHOU-9",
        "group": "stations",
        "lat": 36.72538422303332,
        "lon": 138.30345694753882,
        "alt_km": 383.4709170964252,
        "timestamp": "2025-12-12T20:43:05.813701+00:00",
        "meta_object_name": "TIANZHOU-9",
        "meta_object_id": "2025-149A",
        "meta_epoch": "2025-12-12T03:18:59.276448",
        "meta_mean_motion": 15.59138453,
        "meta_eccentricity": 0.0008469,
        "meta_inclination": 41.4684,
        "meta_ra_of_asc_node": 20.3596,
        "meta_arg_of_pericenter": 25.2431,
        "meta_mean_anomaly": 334.882,
        "meta_ephemeris_type": 0,
        "meta_classification_type": "U",
        "meta_norad_cat_id": 64786,
        "meta_element_set_no": 999,
        "meta_rev_at_epoch": 25530,
        "meta_bstar": 0.00037752271,
        "meta_mean_motion_dot": 0.00030211,
        "meta_mean_motion_ddot": 0,
        "tle_line1": "1 64786U 25149A   25346.13818607  .00030211  00000+0  37752-3 0  9999",
        "tle_line2": "2 64786  41.4684  20.3596 0008469  25.2431 334.8820 15.59138453255306"
      },
      "geometry": {
        "type": "Point",
        "coordinates": [
          138.30345694753882,
          36.72538422303332
        ]
      }
    },
    {
      "type": "Feature",
      "properties": {
        "norad_id": 65077,
        "name": "CREW DRAGON 11",
        "group": "stations",
        "lat": -1.2720587666599135,
        "lon": 140.85820919161125,
        "alt_km": 419.99464368641475,
        "timestamp": "2025-12-12T20:43:05.813711+00:00",
        "meta_object_name": "CREW DRAGON 11",
        "meta_object_id": "2025-166A",
        "meta_epoch": "2025-12-12T03:41:57.165504",
        "meta_mean_motion": 15.49529746,
        "meta_eccentricity": 0.00032837,
        "meta_inclination": 51.6307,
        "meta_ra_of_asc_node": 145.3792,
        "meta_arg_of_pericenter": 237.6977,
        "meta_mean_anomaly": 122.3694,
        "meta_ephemeris_type": 0,
        "meta_classification_type": "U",
        "meta_norad_cat_id": 65077,
        "meta_element_set_no": 999,
        "meta_rev_at_epoch": 214,
        "meta_bstar": 0.00026408062,
        "meta_mean_motion_dot": 0.00014398,
        "meta_mean_motion_ddot": 0,
        "tle_line1": "1 65077U 25166A   25346.15413386  .00014398  00000+0  26408-3 0  9993",
        "tle_line2": "2 65077  51.6307 145.3792 0003283 237.6977 122.3694 15.49529746  2143"
      },
      "geometry": {
        "type": "Point",
        "coordinates": [
          140.85820919161125,
          -1.2720587666599135
        ]
      }
    },
    {
      "type": "Feature",
      "properties": {
        "norad_id": 65304,
        "name": "DRAGON CRS-33",
        "group": "stations",
        "lat": -1.272058209823567,
        "lon": 140.85820963243924,
        "alt_km": 419.99464363951665,
        "timestamp": "2025-12-12T20:43:05.813722+00:00",
        "meta_object_name": "DRAGON CRS-33",
        "meta_object_id": "2025-186A",
        "meta_epoch": "2025-12-12T03:41:57.165504",
        "meta_mean_motion": 15.49529746,
        "meta_eccentricity": 0.00032837,
        "meta_inclination": 51.6307,
        "meta_ra_of_asc_node": 145.3792,
        "meta_arg_of_pericenter": 237.6977,
        "meta_mean_anomaly": 122.3694,
        "meta_ephemeris_type": 0,
        "meta_classification_type": "U",
        "meta_norad_cat_id": 65304,
        "meta_element_set_no": 999,
        "meta_rev_at_epoch": 11,
        "meta_bstar": 0.00026408062,
        "meta_mean_motion_dot": 0.00014398,
        "meta_mean_motion_ddot": 0,
        "tle_line1": "1 65304U 25186A   25346.15413386  .00014398  00000+0  26408-3 0  9998",
        "tle_line2": "2 65304  51.6307 145.3792 0003283 237.6977 122.3694 15.49529746   111"
      },
      "geometry": {
        "type": "Point",
        "coordinates": [
          140.85820963243924,
          -1.272058209823567
        ]
      }
    },
    {
      "type": "Feature",
      "properties": {
        "norad_id": 65586,
        "name": "PROGRESS-MS 32",
        "group": "stations",
        "lat": -1.2720577036110952,
        "lon": 140.8582100331901,
        "alt_km": 419.99464359688136,
        "timestamp": "2025-12-12T20:43:05.813732+00:00",
        "meta_object_name": "PROGRESS-MS 32",
        "meta_object_id": "2025-204A",
        "meta_epoch": "2025-12-12T03:41:57.165504",
        "meta_mean_motion": 15.49529746,
        "meta_eccentricity": 0.00032837,
        "meta_inclination": 51.6307,
        "meta_ra_of_asc_node": 145.3792,
        "meta_arg_of_pericenter": 237.6977,
        "meta_mean_anomaly": 122.3694,
        "meta_ephemeris_type": 0,
        "meta_classification_type": "U",
        "meta_norad_cat_id": 65586,
        "meta_element_set_no": 999,
        "meta_rev_at_epoch": 27,
        "meta_bstar": 0.00026408062,
        "meta_mean_motion_dot": 0.00014398,
        "meta_mean_motion_ddot": 0,
        "tle_line1": "1 65586U 25204A   25346.15413386  .00014398  00000+0  26408-3 0  9991",
        "tle_line2": "2 65586  51.6307 145.3792 0003283 237.6977 122.3694 15.49529746   270"
      },
      "geometry": {
        "type": "Point",
        "coordinates": [
          140.8582100331901,
          -1.2720577036110952
        ]
      }
    },
    {
      "type": "Feature",
      "properties": {
        "norad_id": 65616,
        "name": "CYGNUS NG-23",
        "group": "stations",
        "lat": -1.2720569949114577,
        "lon": 140.85821059424296,
        "alt_km": 419.99464353719304,
        "timestamp": "2025-12-12T20:43:05.813746+00:00",
        "meta_object_name": "CYGNUS NG-23",
        "meta_object_id": "2025-208A",
        "meta_epoch": "2025-12-12T03:41:57.165504",
        "meta_mean_motion": 15.49529746,
        "meta_eccentricity": 0.00032837,
        "meta_inclination": 51.6307,
        "meta_ra_of_asc_node": 145.3792,
        "meta_arg_of_pericenter": 237.6977,
        "meta_mean_anomaly": 122.3694,
        "meta_ephemeris_type": 0,
        "meta_classification_type": "U",
        "meta_norad_cat_id": 65616,
        "meta_element_set_no": 999,
        "meta_rev_at_epoch": 22,
        "meta_bstar": 0.00026408062,
        "meta_mean_motion_dot": 0.00014398,
        "meta_mean_motion_ddot": 0,
        "tle_line1": "1 65616U 25208A   25346.15413386  .00014398  00000+0  26408-3 0  9999",
        "tle_line2": "2 65616  51.6307 145.3792 0003283 237.6977 122.3694 15.49529746   229"
      },
      "geometry": {
        "type": "Point",
        "coordinates": [
          140.85821059424296,
          -1.2720569949114577
        ]
      }
    },
    {
      "type": "Feature",
      "properties": {
        "norad_id": 65729,
        "name": "DRAGONFLY",
        "group": "stations",
        "lat": -10.646561067961862,
        "lon": 126.5623107168117,
        "alt_km": 353.9485718975293,
        "timestamp": "2025-12-12T20:43:05.813757+00:00",
        "meta_object_name": "DRAGONFLY",
        "meta_object_id": "1998-067XH",
        "meta_epoch": "2025-12-11T23:24:46.286208",
        "meta_mean_motion": 15.71570854,
        "meta_eccentricity": 0.0006728,
        "meta_inclination": 51.6238,
        "meta_ra_of_asc_node": 139.6768,
        "meta_arg_of_pericenter": 272.7665,
        "meta_mean_anomaly": 87.2563,
        "meta_ephemeris_type": 0,
        "meta_classification_type": "U",
        "meta_norad_cat_id": 65729,
        "meta_element_set_no": 999,
        "meta_rev_at_epoch": 1304,
        "meta_bstar": 0.0014274,
        "meta_mean_motion_dot": 0.00191153,
        "meta_mean_motion_ddot": 0,
        "tle_line1": "1 65729U 98067XH  25345.97553572  .00191153  00000+0  14274-2 0  9990",
        "tle_line2": "2 65729  51.6238 139.6768 0006728 272.7665  87.2563 15.71570854 13046"
      },
      "geometry": {
        "type": "Point",
        "coordinates": [
          126.5623107168117,
          -10.646561067961862
        ]
      }
    }
  ]
}